{
    "links": {
        "self": "http://www.neowsapp.com/rest/v1/neo/3177216?api_key=iIulBulltgU6a56xZRHN4H3l9WmuAYTsLGpBGhQ2"
    },
    "id": "3177216",
    "neo_reference_id": "3177216",
    "name": "(2004 FA5)",
    "designation": "2004 FA5",
    "nasa_jpl_url": "http://ssd.jpl.nasa.gov/sbdb.cgi?sstr=3177216",
    "absolute_magnitude_h": 24.5,
    "estimated_diameter": {
        "kilometers": {
            "estimated_diameter_min": 0.0334622374,
            "estimated_diameter_max": 0.0748238376
        },
        "meters": {
            "estimated_diameter_min": 33.4622374455,
            "estimated_diameter_max": 74.8238376074
        },
        "miles": {
            "estimated_diameter_min": 0.0207924639,
            "estimated_diameter_max": 0.0464933628
        },
        "feet": {
            "estimated_diameter_min": 109.7842471007,
            "estimated_diameter_max": 245.4850393757
        }
    },
    "is_potentially_hazardous_asteroid": false,
    "close_approach_data": [
        {
            "close_approach_date": "2004-03-22",
            "close_approach_date_full": "2004-Mar-22 21:49",
            "epoch_date_close_approach": 1079992140000,
            "relative_velocity": {
                "kilometers_per_second": "10.8286192761",
                "kilometers_per_hour": "38983.029393784",
                "miles_per_hour": "24222.5384585987"
            },
            "miss_distance": {
                "astronomical": "0.0261986605",
                "lunar": "10.1912789345",
                "kilometers": "3919263.807653135",
                "miles": "2435317.602897863"
            },
            "orbiting_body": "Earth"
        },
        {
            "close_approach_date": "2004-09-02",
            "close_approach_date_full": "2004-Sep-02 11:40",
            "epoch_date_close_approach": 1094125200000,
            "relative_velocity": {
                "kilometers_per_second": "8.9860481686",
                "kilometers_per_hour": "32349.773406902",
                "miles_per_hour": "20100.8911483053"
            },
            "miss_distance": {
                "astronomical": "0.3799575538",
                "lunar": "147.8034884282",
                "kilometers": "56840840.738890406",
                "miles": "35319260.6592673628"
            },
            "orbiting_body": "Earth"
        },
        {
            "close_approach_date": "2007-03-18",
            "close_approach_date_full": "2007-Mar-18 14:40",
            "epoch_date_close_approach": 1174228800000,
            "relative_velocity": {
                "kilometers_per_second": "12.6531401551",
                "kilometers_per_hour": "45551.3045585198",
                "miles_per_hour": "28303.8092130425"
            },
            "miss_distance": {
                "astronomical": "0.0811684297",
                "lunar": "31.5745191533",
                "kilometers": "12142624.194364739",
                "miles": "7545076.8045178382"
            },
            "orbiting_body": "Earth"
        }
    ],
    "orbital_data": {
        "orbit_id": "9",
        "orbit_determination_date": "2017-04-06 09:13:02",
        "first_observation_date": "2004-03-20",
        "last_observation_date": "2004-03-24",
        "data_arc_in_days": 4,
        "observations_used": 24,
        "orbit_uncertainty": "8",
        "minimum_orbit_intersection": ".0245861",
        "jupiter_tisserand_invariant": "4.906",
        "epoch_osculation": "2453087.5",
        "eccentricity": ".2995072993921791",
        "semi_major_axis": "1.306730533155599",
        "inclination": "15.01237211877831",
        "ascending_node_longitude": "178.5147071508579",
        "orbital_period": "545.6039242658861",
        "perihelion_distance": ".9153552001368633",
        "perihelion_argument": "58.55112812731652",
        "aphelion_distance": "1.698105866174335",
        "perihelion_time": "2453133.385060547205",
        "mean_anomaly": "329.7241514176795",
        "mean_motion": ".6598193011246803",
        "equinox": "J2000",
        "orbit_class": {
            "orbit_class_type": "APO",
            "orbit_class_description": "Near-Earth asteroid orbits which cross the Earth’s orbit similar to that of 1862 Apollo",
            "orbit_class_range": "a (semi-major axis) > 1.0 AU; q (perihelion) < 1.017 AU"
        }
    },
    "is_sentry_object": false
}